{
  "norad_id": 49211,
  "name": "ONEWEB-0345",
  "history": [
    {
      "epoch": "2026-03-28T17:51:23.519808Z",
      "apogee_km": 1211.10127791578,
      "perigee_km": 1208.4206253274315,
      "latitude_deg": 3.0099509870607395e-05,
      "longitude_deg": -117.7758757316262,
      "height_km": 1212.183505731863,
      "semi_major_axis_km": 7587.897951621605,
      "eccentricity": 0.00017664,
      "inclination_deg": 87.9013,
      "raan_deg": 336.2322,
      "arg_perigee_deg": 69.6131,
      "mean_anomaly_deg": 290.5188,
      "mean_motion_rev_day": 13.13471155
    },
    {
      "epoch": "2026-03-29T04:49:33.860640Z",
      "apogee_km": 1211.0885447043875,
      "perigee_km": 1208.42822858183,
      "latitude_deg": 4.465231665815823e-05,
      "longitude_deg": 77.13973503772752,
      "height_km": 1212.18973779551,
      "semi_major_axis_km": 7587.895386643108,
      "eccentricity": 0.0001753,
      "inclination_deg": 87.9012,
      "raan_deg": 336.1414,
      "arg_perigee_deg": 69.8536,
      "mean_anomaly_deg": 290.2782,
      "mean_motion_rev_day": 13.13471821
    },
    {
      "epoch": "2026-03-30T04:35:36.368160Z",
      "apogee_km": 1211.1033064868825,
      "perigee_km": 1208.4149148948645,
      "latitude_deg": -6.129038419607677e-06,
      "longitude_deg": 79.45659489051467,
      "height_km": 1212.1770071110977,
      "semi_major_axis_km": 7587.896110690873,
      "eccentricity": 0.00017715,
      "inclination_deg": 87.9011,
      "raan_deg": 335.9448,
      "arg_perigee_deg": 69.4626,
      "mean_anomaly_deg": 290.6693,
      "mean_motion_rev_day": 13.13471633
    },
    {
      "epoch": "2026-03-30T10:04:41.524320Z",
      "apogee_km": 1211.094083445345,
      "perigee_km": 1208.4216268773562,
      "latitude_deg": 1.1258503682689623e-05,
      "longitude_deg": -3.08553953056711,
      "height_km": 1212.1777344687387,
      "semi_major_axis_km": 7587.89485516135,
      "eccentricity": 0.0001761,
      "inclination_deg": 87.901,
      "raan_deg": 335.8994,
      "arg_perigee_deg": 69.4247,
      "mean_anomaly_deg": 290.7071,
      "mean_motion_rev_day": 13.13471959
    }
  ]
}